NORAD_CAT_ID,OBJECT_NAME,OBJECT_TYPE,EPOCH,MEAN_MOTION,ECCENTRICITY,INCLINATION,RA_OF_ASC_NODE,ARG_OF_PERICENTER,MEAN_ANOMALY,BSTAR,MEAN_MOTION_DOT,MEAN_MOTION_DDOT,TLE_LINE0,TLE_LINE1,TLE_LINE2,SEMIMAJOR_AXIS,PERIOD,APOGEE,PERIGEE,DECAYED
51802.0,STARLINK-3557,PAYLOAD,2023-11-13 22:59:08,15.08832654,0.0001366,53.2158,190.2395,85.4277,274.6871,1.9642e-05,2.5e-07,0.0,0 STARLINK-3557,1 51802U 22017AL  23317.95773900  .00000025  00000-0  19642-4 0  9997,2 51802  53.2158 190.2395 0001366  85.4277 274.6871 15.08832654 96091,6917.903,95.438,540.713,538.823,0.0
51802.0,STARLINK-3557,PAYLOAD,2023-11-14 02:09:54,15.08834107,0.0001523,53.2169,189.644,82.5096,277.6069,2.5888e-05,1.24e-06,0.0,0 STARLINK-3557,1 51802U 22017AL  23318.09021825  .00000124  00000-0  25888-4 0  9994,2 51802  53.2169 189.6440 0001523  82.5096 277.6069 15.08834107 96118,6917.898,95.438,540.817,538.71,0.0
51802.0,STARLINK-3557,PAYLOAD,2023-11-14 08:31:27,15.08835566,0.0001546,53.2167,188.4549,82.0919,278.0249,3.1842e-05,2.19e-06,0.0,0 STARLINK-3557,1 51802U 22017AL  23318.35517776  .00000219  00000-0  31842-4 0  9990,2 51802  53.2167 188.4549 0001546  82.0919 278.0249 15.08835566 96156,6917.894,95.438,540.828,538.689,0.0
51802.0,STARLINK-3557,PAYLOAD,2023-11-15 00:25:18,15.08841748,0.0001597,53.2173,185.4814,95.4198,264.6976,7.6151e-05,9.24e-06,0.0,0 STARLINK-3557,1 51802U 22017AL  23319.01757242  .00000924  00000-0  76151-4 0  9993,2 51802  53.2173 185.4814 0001597  95.4198 264.6976 15.08841748 96256,6917.875,95.437,540.845,538.635,0.0
51802.0,STARLINK-3557,PAYLOAD,2023-11-15 21:05:18,15.08842241,0.0001524,53.2161,181.6155,86.3613,273.7553,0.00010737,1.421e-05,0.0,0 STARLINK-3557,1 51802U 22017AL  23319.87868998  .00001421  00000-0  10737-3 0  9998,2 51802  53.2161 181.6155 0001524  86.3613 273.7553 15.08842241 96385,6917.874,95.437,540.793,538.684,0.0
51802.0,STARLINK-3557,PAYLOAD,2023-11-16 00:16:05,15.0884292,0.0001501,53.2157,181.0207,87.1694,272.947,0.00010241,1.342e-05,0.0,0 STARLINK-3557,1 51802U 22017AL  23320.01116953  .00001342  00000-0  10241-3 0  9995,2 51802  53.2157 181.0207 0001501  87.1694 272.9470 15.08842920 96401,6917.871,95.437,540.775,538.698,0.0
51802.0,STARLINK-3557,PAYLOAD,2023-11-16 20:56:06,15.08836146,0.0001668,53.2148,177.1555,86.2364,273.8818,1.2716e-06,-2.68e-06,0.0,0 STARLINK-3557,1 51802U 22017AL  23320.87229743 -.00000268  00000-0  12716-5 0  9999,2 51802  53.2148 177.1555 0001668  86.2364 273.8818 15.08836146 96534,6917.892,95.438,540.911,538.603,0.0
51802.0,STARLINK-3557,PAYLOAD,2023-11-17 00:06:52,15.08835061,0.0001604,53.2162,176.5599,90.3917,269.7259,-4.2621e-05,-9.66e-06,0.0,0 STARLINK-3557,1 51802U 22017AL  23321.00477938 -.00000966  00000-0 -42621-4 0  9999,2 51802  53.2162 176.5599 0001604  90.3917 269.7259 15.08835061 96551,6917.895,95.438,540.87,538.651,0.0
51802.0,STARLINK-3557,PAYLOAD,2023-11-17 08:03:48,15.0883719,0.0001658,53.2185,175.0754,84.6666,275.4515,-2.52e-05,-6.89e-06,0.0,0 STARLINK-3557,1 51802U 22017AL  23321.33597848 -.00000689  00000-0 -25200-4 0  9994,2 51802  53.2185 175.0754 0001658  84.6666 275.4515 15.08837190 96609,6917.889,95.438,540.901,538.607,0.0
51802.0,STARLINK-3557,PAYLOAD,2023-11-17 20:46:53,15.08839052,0.0001671,53.2189,172.6936,96.9984,263.1199,3.2068e-05,2.22e-06,0.0,0 STARLINK-3557,1 51802U 22017AL  23321.86589498  .00000222  00000-0  32068-4 0  9995,2 51802  53.2189 172.6936 0001671  96.9984 263.1199 15.08839052 96681,6917.883,95.438,540.904,538.592,0.0
51802.0,STARLINK-3557,PAYLOAD,2023-11-17 23:57:39,15.08838961,0.0001671,53.2187,172.099,96.9466,263.1716,2.9734e-05,1.85e-06,0.0,0 STARLINK-3557,1 51802U 22017AL  23321.99837505  .00000185  00000-0  29734-4 0  9998,2 51802  53.2187 172.0990 0001671  96.9466 263.1716 15.08838961 96704,6917.884,95.438,540.905,538.593,0.0
51802.0,STARLINK-3557,PAYLOAD,2023-11-18 20:37:40,15.08839737,0.0001537,53.2165,168.2347,91.2253,268.8916,9.1657e-05,1.171e-05,0.0,0 STARLINK-3557,1 51802U 22017AL  23322.85949346  .00001171  00000-0  91657-4 0  9990,2 51802  53.2165 168.2347 0001537  91.2253 268.8916 15.08839737 96836,6917.881,95.438,540.809,538.683,0.0
51802.0,STARLINK-3557,PAYLOAD,2023-11-19 20:28:27,15.08837572,0.0001584,53.2175,163.7749,91.6442,268.4732,2.9875e-05,1.87e-06,0.0,0 STARLINK-3557,1 51802U 22017AL  23323.85309822  .00000187  00000-0  29875-4 0  9999,2 51802  53.2175 163.7749 0001584  91.6442 268.4732 15.08837572 96982,6917.888,95.438,540.849,538.657,0.0
51802.0,STARLINK-3557,PAYLOAD,2023-11-20 06:00:46,15.08838922,0.0001427,53.2163,161.9901,89.2822,270.8334,5.5879e-06,-1.99e-06,0.0,0 STARLINK-3557,1 51802U 22017AL  23324.25053819 -.00000199  00000-0  55879-5 0  9994,2 51802  53.2163 161.9901 0001427  89.2822 270.8334 15.08838922 97043,6917.884,95.438,540.736,538.762,0.0
51802.0,STARLINK-3557,PAYLOAD,2023-11-20 21:54:37,15.08840056,0.0001427,53.2162,159.0163,88.3871,271.7285,5.2651e-05,5.5e-06,0.0,0 STARLINK-3557,1 51802U 22017AL  23324.91293574  .00000550  00000-0  52651-4 0  9995,2 51802  53.2162 159.0163 0001427  88.3871 271.7285 15.08840056 97141,6917.88,95.438,540.732,538.758,0.0
51802.0,STARLINK-3557,PAYLOAD,2023-11-20 23:30:00,15.08840389,0.0001428,53.2162,158.7189,88.2555,271.8601,5.4888e-05,5.86e-06,0.0,0 STARLINK-3557,1 51802U 22017AL  23324.97917547  .00000586  00000-0  54888-4 0  9997,2 51802  53.2162 158.7189 0001428  88.2555 271.8601 15.08840389 97157,6917.879,95.438,540.732,538.756,0.0
51802.0,STARLINK-3557,PAYLOAD,2023-11-21 13:48:29,15.0883353,0.0001464,53.2162,156.0429,90.155,269.961,8.9686e-06,-1.45e-06,0.0,0 STARLINK-3557,1 51802U 22017AL  23325.57534277 -.00000145  00000-0  89686-5 0  9996,2 51802  53.2162 156.0429 0001464  90.1550 269.9610 15.08833530 97240,6917.9,95.438,540.778,538.752,0.0
51802.0,STARLINK-3557,PAYLOAD,2023-11-21 18:34:39,15.08834362,0.0001471,53.2159,155.1508,90.3749,269.7411,1.5699e-05,-3.8e-07,0.0,0 STARLINK-3557,1 51802U 22017AL  23325.77406265 -.00000038  00000-0  15699-4 0  9996,2 51802  53.2159 155.1508 0001471  90.3749 269.7411 15.08834362 97278,6917.898,95.438,540.78,538.745,0.0
51802.0,STARLINK-3557,PAYLOAD,2023-11-21 20:10:02,15.08836077,0.0001477,53.216,154.8535,90.2201,269.896,3.0628e-05,1.99e-06,0.0,0 STARLINK-3557,1 51802U 22017AL  23325.84030158  .00000199  00000-0  30628-4 0  9994,2 51802  53.2160 154.8535 0001477  90.2201 269.8960 15.08836077 97280,6917.892,95.438,540.779,538.736,0.0
51802.0,STARLINK-3557,PAYLOAD,2023-11-21 23:20:48,15.08837621,0.000148,53.216,154.2587,90.0342,270.082,4.1863e-05,3.78e-06,0.0,0 STARLINK-3557,1 51802U 22017AL  23325.97278054  .00000378  00000-0  41863-4 0  9999,2 51802  53.2160 154.2587 0001480  90.0342 270.0820 15.08837621 97307,6917.888,95.438,540.777,538.729,0.0
51802.0,STARLINK-3557,PAYLOAD,2023-11-22 20:00:48,15.08844038,0.0001497,53.2162,150.3929,90.1751,269.9413,6.0937e-05,6.82e-06,0.0,0 STARLINK-3557,1 51802U 22017AL  23326.83389656  .00000682  00000-0  60937-4 0  9997,2 51802  53.2162 150.3929 0001497  90.1751 269.9413 15.08844038 97438,6917.868,95.437,540.769,538.697,0.0
51802.0,STARLINK-3557,PAYLOAD,2023-11-23 11:54:40,15.08840682,0.000155,53.216,147.4194,87.6633,272.4536,8.7762e-06,-1.48e-06,0.0,0 STARLINK-3557,1 51802U 22017AL  23327.49630064 -.00000148  00000-0  87762-5 0  9996,2 51802  53.2160 147.4194 0001550  87.6633 272.4536 15.08840682 97534,6917.878,95.438,540.816,538.671,0.0
51802.0,STARLINK-3557,PAYLOAD,2023-11-23 19:51:36,15.08835141,0.0001507,53.2164,145.9328,82.2963,277.82,7.7594e-05,9.47e-06,0.0,0 STARLINK-3557,1 51802U 22017AL  23327.82750373  .00000947  00000-0  77594-4 0  9996,2 51802  53.2164 145.9328 0001507  82.2963 277.8200 15.08835141 97585,6917.895,95.438,540.803,538.718,0.0
51802.0,STARLINK-3557,PAYLOAD,2023-11-24 11:45:27,15.08841457,0.0001623,53.2169,142.9596,76.0484,284.0689,5.8261e-05,6.39e-06,0.0,0 STARLINK-3557,1 51802U 22017AL  23328.48990147  .00000639  00000-0  58261-4 0  9992,2 51802  53.2169 142.9596 0001623  76.0484 284.0689 15.08841457 97681,6917.876,95.437,540.864,538.618,0.0
51802.0,STARLINK-3557,PAYLOAD,2023-11-24 18:06:59,15.0884284,0.0001607,53.2169,141.7703,76.605,283.5121,5.2993e-05,5.56e-06,0.0,0 STARLINK-3557,1 51802U 22017AL  23328.75486061  .00000556  00000-0  52993-4 0  9991,2 51802  53.2169 141.7703 0001607  76.6050 283.5121 15.08842840 97722,6917.872,95.437,540.848,538.625,0.0
51802.0,STARLINK-3557,PAYLOAD,2023-11-24 21:17:45,15.08845348,0.0001546,53.2164,141.1746,81.3349,278.7818,7.3883e-05,8.88e-06,0.0,0 STARLINK-3557,1 51802U 22017AL  23328.88733768  .00000888  00000-0  73883-4 0  9993,2 51802  53.2164 141.1746 0001546  81.3349 278.7818 15.08845348 97741,6917.864,95.437,540.799,538.66,0.0
51802.0,STARLINK-3557,PAYLOAD,2023-11-25 14:47:00,15.08841116,0.0001477,53.2162,137.9029,85.8922,274.2239,6.8601e-05,8.04e-06,0.0,0 STARLINK-3557,1 51802U 22017AL  23329.61598023  .00000804  00000-0  68601-4 0  9998,2 51802  53.2162 137.9029 0001477  85.8922 274.2239 15.08841116 97854,6917.877,95.437,540.764,538.72,0.0
51802.0,STARLINK-3557,PAYLOAD,2023-11-25 21:08:32,15.08846388,0.0001487,53.2163,136.713,87.5048,272.6114,0.00010594,1.399e-05,0.0,0 STARLINK-3557,1 51802U 22017AL  23329.88093574  .00001399  00000-0  10594-3 0  9995,2 51802  53.2163 136.7130 0001487  87.5048 272.6114 15.08846388 97898,6917.861,95.437,540.755,538.697,0.0
51802.0,STARLINK-3557,PAYLOAD,2023-11-26 14:37:47,15.08844862,0.0001531,53.2164,133.441,95.8742,264.2424,4.0525e-05,3.57e-06,0.0,0 STARLINK-3557,1 51802U 22017AL  23330.60957613  .00000357  00000-0  40525-4 0  9991,2 51802  53.2164 133.4410 0001531  95.8742 264.2424 15.08844862 98007,6917.866,95.437,540.79,538.671,0.0
51802.0,STARLINK-3557,PAYLOAD,2023-11-26 17:48:33,15.08843362,0.0001285,53.2167,132.8447,92.1447,267.9693,6.8602e-05,8.04e-06,0.0,0 STARLINK-3557,1 51802U 22017AL  23330.74205579  .00000804  00000-0  68602-4 0  9996,2 51802  53.2167 132.8447 0001285  92.1447 267.9693 15.08843362 98025,6917.87,95.437,540.624,538.846,0.0
